QIANFAN-73              
1 63159U 25046A   25311.79492214  .00000033  00000+0  33070-4 0  9993
2 63159  88.9757 323.6439 0013678 219.3023 140.7136 13.50972703 42695
QIANFAN-74              
1 63160U 25046B   25311.77841944  .00000038  00000+0  39685-4 0  9994
2 63160  88.9757 323.5340 0002058  91.2307 268.9079 13.50974603 42756
QIANFAN-75              
1 63161U 25046C   25311.76586108  .00000123  00000+0  17259-3 0  9999
2 63161  88.9759 323.7684 0014732 223.1347 136.8651 13.50985379 42621
QIANFAN-76              
1 63162U 25046D   25311.83607534 -.00000099  00000+0 -17256-3 0  9996
2 63162  88.9757 323.7419 0012308 222.8454 137.1739 13.50968885 42644
QIANFAN-77              
1 63163U 25046E   25311.78065269  .00000154  00000+0  10252-3 0  9993
2 63163  88.9757 322.0416 0014601 181.5731 178.5403 13.96080959 43578
QIANFAN-78              
1 63164U 25046F   25311.80314083  .00000012  00000+0 -46532-6 0  9995
2 63164  88.9757 323.6098 0013610 225.7889 134.2145 13.50974206 42710
QIANFAN-79              
1 63165U 25046G   25311.83182943  .00000042  00000+0  46756-4 0  9995
2 63165  88.9761 323.7130 0013338 223.6904 136.3192 13.50974354 42669
QIANFAN-80              
1 63166U 25046H   25311.77431051  .00000092  00000+0  12363-3 0  9997
2 63166  88.9759 323.4266 0012204 228.3330 131.6777 13.50976887 42817
